<?xml version="1.0" encoding="UTF-8"?>
<kml xmlns="http://www.opengis.net/kml/2.2">
  <Document>
    <name>Great Sounthern Rail trail </name>
    <description/>
    <Style id="icon-1899-0288D1-nodesc-normal">
      <IconStyle>
        <color>ffd18802</color>
        <scale>1</scale>
        <Icon>
          <href>https://www.gstatic.com/mapspro/images/stock/503-wht-blank_maps.png</href>
        </Icon>
        <hotSpot x="32" xunits="pixels" y="64" yunits="insetPixels"/>
      </IconStyle>
      <LabelStyle>
        <scale>0</scale>
      </LabelStyle>
      <BalloonStyle>
        <text><![CDATA[<h3>$[name]</h3>]]></text>
      </BalloonStyle>
    </Style>
    <Style id="icon-1899-0288D1-nodesc-highlight">
      <IconStyle>
        <color>ffd18802</color>
        <scale>1</scale>
        <Icon>
          <href>https://www.gstatic.com/mapspro/images/stock/503-wht-blank_maps.png</href>
        </Icon>
        <hotSpot x="32" xunits="pixels" y="64" yunits="insetPixels"/>
      </IconStyle>
      <LabelStyle>
        <scale>1</scale>
      </LabelStyle>
      <BalloonStyle>
        <text><![CDATA[<h3>$[name]</h3>]]></text>
      </BalloonStyle>
    </Style>
    <StyleMap id="icon-1899-0288D1-nodesc">
      <Pair>
        <key>normal</key>
        <styleUrl>#icon-1899-0288D1-nodesc-normal</styleUrl>
      </Pair>
      <Pair>
        <key>highlight</key>
        <styleUrl>#icon-1899-0288D1-nodesc-highlight</styleUrl>
      </Pair>
    </StyleMap>
    <Style id="icon-1899-DB4436-nodesc-normal">
      <IconStyle>
        <color>ff3644db</color>
        <scale>1</scale>
        <Icon>
          <href>https://www.gstatic.com/mapspro/images/stock/503-wht-blank_maps.png</href>
        </Icon>
        <hotSpot x="32" xunits="pixels" y="64" yunits="insetPixels"/>
      </IconStyle>
      <LabelStyle>
        <scale>0</scale>
      </LabelStyle>
      <BalloonStyle>
        <text><![CDATA[<h3>$[name]</h3>]]></text>
      </BalloonStyle>
    </Style>
    <Style id="icon-1899-DB4436-nodesc-highlight">
      <IconStyle>
        <color>ff3644db</color>
        <scale>1</scale>
        <Icon>
          <href>https://www.gstatic.com/mapspro/images/stock/503-wht-blank_maps.png</href>
        </Icon>
        <hotSpot x="32" xunits="pixels" y="64" yunits="insetPixels"/>
      </IconStyle>
      <LabelStyle>
        <scale>1</scale>
      </LabelStyle>
      <BalloonStyle>
        <text><![CDATA[<h3>$[name]</h3>]]></text>
      </BalloonStyle>
    </Style>
    <StyleMap id="icon-1899-DB4436-nodesc">
      <Pair>
        <key>normal</key>
        <styleUrl>#icon-1899-DB4436-nodesc-normal</styleUrl>
      </Pair>
      <Pair>
        <key>highlight</key>
        <styleUrl>#icon-1899-DB4436-nodesc-highlight</styleUrl>
      </Pair>
    </StyleMap>
    <Style id="line-1267FF-5000-nodesc-normal">
      <LineStyle>
        <color>ffff6712</color>
        <width>5</width>
      </LineStyle>
      <BalloonStyle>
        <text><![CDATA[<h3>$[name]</h3>]]></text>
      </BalloonStyle>
    </Style>
    <Style id="line-1267FF-5000-nodesc-highlight">
      <LineStyle>
        <color>ffff6712</color>
        <width>7.5</width>
      </LineStyle>
      <BalloonStyle>
        <text><![CDATA[<h3>$[name]</h3>]]></text>
      </BalloonStyle>
    </Style>
    <StyleMap id="line-1267FF-5000-nodesc">
      <Pair>
        <key>normal</key>
        <styleUrl>#line-1267FF-5000-nodesc-normal</styleUrl>
      </Pair>
      <Pair>
        <key>highlight</key>
        <styleUrl>#line-1267FF-5000-nodesc-highlight</styleUrl>
      </Pair>
    </StyleMap>
    <Folder>
      <name>Untitled layer</name>
      <Placemark>
        <name>Nyora Railway Station</name>
        <styleUrl>#icon-1899-0288D1-nodesc</styleUrl>
        <Point>
          <coordinates>
            145.6705765,-38.3330722,0
          </coordinates>
        </Point>
      </Placemark>
    </Folder>
    <Folder>
      <name>Directions from Nyora Railway Station to Port Welshpool VIC</name>
      <Placemark>
        <name>Directions from Nyora Railway Station to Port Welshpool VIC</name>
        <styleUrl>#line-1267FF-5000-nodesc</styleUrl>
        <LineString>
          <tessellate>1</tessellate>
          <coordinates>
            145.67053,-38.33326,0
            145.67133,-38.33338,0
            145.67257,-38.33359,0
            145.67262,-38.33345,0
            145.67341,-38.33362,0
            145.67429,-38.33387,0
            145.67525,-38.33424,0
            145.67575,-38.33451,0
            145.67584,-38.33455,0
            145.67657,-38.33497,0
            145.67768,-38.33578,0
            145.67768,-38.33579,0
            145.6798,-38.33739,0
            145.68481,-38.34108,0
            145.68584,-38.34169,0
            145.68615,-38.34178,0
            145.6862,-38.34179,0
            145.68658,-38.34191,0
            145.68663,-38.34192,0
            145.6883,-38.34242,0
            145.69086,-38.34256,0
            145.69109,-38.34258,0
            145.69218,-38.34264,0
            145.69224,-38.34264,0
            145.6925,-38.34266,0
            145.69348,-38.34279,0
            145.69411,-38.34295,0
            145.69513,-38.34331,0
            145.69589,-38.34367,0
            145.69698,-38.34453,0
            145.69782,-38.34542,0
            145.69838,-38.34659,0
            145.69881,-38.34799,0
            145.69884,-38.34807,0
            145.69943,-38.3501,0
            145.69949,-38.35027,0
            145.69953,-38.35043,0
            145.69979,-38.35109,0
            145.69989,-38.3513,0
            145.69996,-38.35147,0
            145.70004,-38.35163,0
            145.70042,-38.3522,0
            145.70066,-38.35272,0
            145.70207,-38.35496,0
            145.70254,-38.35597,0
            145.70311,-38.35867,0
            145.70314,-38.35885,0
            145.70408,-38.36088,0
            145.70485,-38.36205,0
            145.70493,-38.36216,0
            145.70557,-38.36311,0
            145.70567,-38.36327,0
            145.70743,-38.36588,0
            145.70851,-38.36693,0
            145.70964,-38.36785,0
            145.71047,-38.36846,0
            145.71047,-38.36847,0
            145.71148,-38.3692,0
            145.71155,-38.36926,0
            145.71322,-38.37007,0
            145.71427,-38.37036,0
            145.71556,-38.37079,0
            145.71556,-38.3708,0
            145.71639,-38.37111,0
            145.71653,-38.37117,0
            145.71709,-38.37156,0
            145.7171,-38.37157,0
            145.71747,-38.37183,0
            145.71854,-38.37307,0
            145.71902,-38.37398,0
            145.71903,-38.37399,0
            145.71913,-38.37427,0
            145.71916,-38.37446,0
            145.7192,-38.37486,0
            145.71921,-38.37508,0
            145.71905,-38.37611,0
            145.71903,-38.37629,0
            145.71893,-38.37683,0
            145.71885,-38.37718,0
            145.71871,-38.37789,0
            145.71869,-38.37796,0
            145.71849,-38.37848,0
            145.71821,-38.37889,0
            145.71805,-38.37914,0
            145.71626,-38.38074,0
            145.7156,-38.38183,0
            145.71555,-38.38199,0
            145.71551,-38.38217,0
            145.71514,-38.38357,0
            145.71504,-38.38429,0
            145.71498,-38.38465,0
            145.71494,-38.38497,0
            145.71496,-38.38536,0
            145.71501,-38.3859,0
            145.71501,-38.38594,0
            145.71513,-38.38661,0
            145.71514,-38.38661,0
            145.71514,-38.38662,0
            145.71522,-38.38678,0
            145.71529,-38.38695,0
            145.71529,-38.38696,0
            145.71545,-38.38729,0
            145.71575,-38.38797,0
            145.71576,-38.38797,0
            145.71616,-38.38886,0
            145.71704,-38.39001,0
            145.71708,-38.39005,0
            145.71709,-38.39005,0
            145.71736,-38.39034,0
            145.71764,-38.39062,0
            145.71764,-38.39063,0
            145.71785,-38.39085,0
            145.719,-38.39167,0
            145.72009,-38.39222,0
            145.7201,-38.39223,0
            145.72161,-38.39275,0
            145.722,-38.39282,0
            145.72201,-38.39282,0
            145.72262,-38.39294,0
            145.7229,-38.39293,0
            145.72314,-38.39293,0
            145.72336,-38.39292,0
            145.72375,-38.39292,0
            145.72474,-38.39287,0
            145.72611,-38.39284,0
            145.7262,-38.39283,0
            145.72726,-38.39292,0
            145.72731,-38.39292,0
            145.72848,-38.39323,0
            145.72918,-38.39349,0
            145.72919,-38.39349,0
            145.73168,-38.3944,0
            145.73327,-38.39491,0
            145.73433,-38.39522,0
            145.73434,-38.39523,0
            145.73478,-38.39533,0
            145.735,-38.39539,0
            145.73506,-38.3954,0
            145.73738,-38.39597,0
            145.7376,-38.39604,0
            145.7381,-38.39625,0
            145.73841,-38.39641,0
            145.73877,-38.39663,0
            145.73881,-38.39665,0
            145.73894,-38.39676,0
            145.73895,-38.39676,0
            145.73917,-38.39693,0
            145.73935,-38.3971,0
            145.73962,-38.39739,0
            145.73982,-38.39767,0
            145.73988,-38.39777,0
            145.73997,-38.3979,0
            145.73998,-38.39793,0
            145.74007,-38.39809,0
            145.74015,-38.39826,0
            145.74017,-38.39833,0
            145.74021,-38.39842,0
            145.74029,-38.39869,0
            145.74033,-38.39888,0
            145.74036,-38.39908,0
            145.74037,-38.39923,0
            145.74037,-38.39939,0
            145.74034,-38.39979,0
            145.74032,-38.39986,0
            145.74029,-38.40004,0
            145.74029,-38.40006,0
            145.74025,-38.40022,0
            145.73989,-38.40193,0
            145.73981,-38.40225,0
            145.73978,-38.40234,0
            145.7397,-38.40264,0
            145.73962,-38.40287,0
            145.73961,-38.40288,0
            145.7394,-38.40338,0
            145.73918,-38.40385,0
            145.73916,-38.40388,0
            145.73905,-38.40411,0
            145.73893,-38.40439,0
            145.73881,-38.40474,0
            145.7388,-38.40476,0
            145.73874,-38.40494,0
            145.73866,-38.40529,0
            145.7386,-38.40562,0
            145.73854,-38.40588,0
            145.73847,-38.40624,0
            145.73846,-38.40633,0
            145.73843,-38.40651,0
            145.73843,-38.40654,0
            145.7384,-38.40682,0
            145.7384,-38.40706,0
            145.73845,-38.4074,0
            145.73849,-38.40759,0
            145.73854,-38.40776,0
            145.73855,-38.40781,0
            145.73868,-38.40814,0
            145.73875,-38.40828,0
            145.73902,-38.40873,0
            145.73904,-38.40877,0
            145.73914,-38.40893,0
            145.73921,-38.40906,0
            145.73923,-38.40909,0
            145.73926,-38.40916,0
            145.73931,-38.40926,0
            145.73946,-38.40966,0
            145.7395,-38.40981,0
            145.73954,-38.41001,0
            145.73956,-38.41027,0
            145.73958,-38.41099,0
            145.73959,-38.41104,0
            145.7396,-38.41116,0
            145.73964,-38.41139,0
            145.73966,-38.41157,0
            145.73981,-38.41211,0
            145.73987,-38.41227,0
            145.73996,-38.41248,0
            145.74003,-38.41262,0
            145.74018,-38.41288,0
            145.74021,-38.41294,0
            145.74031,-38.4131,0
            145.74032,-38.41312,0
            145.74053,-38.41346,0
            145.7408,-38.41386,0
            145.74105,-38.41421,0
            145.74105,-38.41422,0
            145.74119,-38.41441,0
            145.74151,-38.41477,0
            145.74156,-38.41482,0
            145.74187,-38.41509,0
            145.74189,-38.4151,0
            145.74207,-38.41524,0
            145.74228,-38.41538,0
            145.74251,-38.41552,0
            145.74269,-38.41561,0
            145.74276,-38.41565,0
            145.74307,-38.4158,0
            145.74308,-38.4158,0
            145.74315,-38.41584,0
            145.74415,-38.41628,0
            145.74428,-38.41633,0
            145.74514,-38.41674,0
            145.74534,-38.41682,0
            145.74653,-38.41736,0
            145.74695,-38.41752,0
            145.74696,-38.41752,0
            145.74716,-38.41759,0
            145.74738,-38.41764,0
            145.7474,-38.41765,0
            145.74766,-38.41771,0
            145.74788,-38.41775,0
            145.74841,-38.41781,0
            145.74859,-38.41781,0
            145.74873,-38.41782,0
            145.74888,-38.41782,0
            145.74896,-38.41781,0
            145.74913,-38.41781,0
            145.74978,-38.41773,0
            145.75029,-38.41761,0
            145.75031,-38.4176,0
            145.75052,-38.41754,0
            145.75108,-38.41732,0
            145.75113,-38.41729,0
            145.75168,-38.417,0
            145.75182,-38.41691,0
            145.7522,-38.41662,0
            145.75221,-38.41661,0
            145.75234,-38.41651,0
            145.75264,-38.4162,0
            145.75281,-38.416,0
            145.75334,-38.4152,0
            145.75343,-38.41511,0
            145.75349,-38.41503,0
            145.75363,-38.41487,0
            145.75384,-38.41467,0
            145.754,-38.41455,0
            145.75414,-38.41443,0
            145.75416,-38.41442,0
            145.75438,-38.41424,0
            145.75457,-38.41411,0
            145.75501,-38.41372,0
            145.75536,-38.41333,0
            145.75556,-38.41303,0
            145.75583,-38.41252,0
            145.75583,-38.41251,0
            145.75591,-38.41236,0
            145.75592,-38.41235,0
            145.75602,-38.41219,0
            145.75603,-38.41218,0
            145.75622,-38.41189,0
            145.75648,-38.41158,0
            145.75665,-38.41142,0
            145.75695,-38.41117,0
            145.75741,-38.41085,0
            145.75747,-38.41082,0
            145.75756,-38.41076,0
            145.75781,-38.41065,0
            145.75795,-38.41058,0
            145.75848,-38.41039,0
            145.7588,-38.4103,0
            145.75956,-38.41017,0
            145.75969,-38.41016,0
            145.76021,-38.41016,0
            145.76028,-38.41017,0
            145.76049,-38.41017,0
            145.76051,-38.41018,0
            145.76063,-38.41018,0
            145.76138,-38.41029,0
            145.76169,-38.41036,0
            145.76269,-38.41069,0
            145.76291,-38.41075,0
            145.76417,-38.41118,0
            145.76419,-38.41118,0
            145.76617,-38.41184,0
            145.76638,-38.41192,0
            145.76701,-38.41213,0
            145.76719,-38.41218,0
            145.76802,-38.41238,0
            145.76811,-38.41239,0
            145.76833,-38.41243,0
            145.76856,-38.41245,0
            145.76868,-38.41247,0
            145.76886,-38.41249,0
            145.76917,-38.4125,0
            145.77085,-38.4125,0
            145.77098,-38.41249,0
            145.77138,-38.41249,0
            145.77184,-38.41251,0
            145.77283,-38.41252,0
            145.77305,-38.41254,0
            145.7736,-38.41261,0
            145.77372,-38.41264,0
            145.7749,-38.413,0
            145.77628,-38.4135,0
            145.7764,-38.41355,0
            145.77662,-38.41362,0
            145.77675,-38.41367,0
            145.77682,-38.41369,0
            145.7773,-38.41386,0
            145.77745,-38.41392,0
            145.77769,-38.41396,0
            145.77805,-38.41412,0
            145.77814,-38.41414,0
            145.77835,-38.41421,0
            145.7785,-38.41425,0
            145.77878,-38.41434,0
            145.77921,-38.41446,0
            145.78032,-38.41496,0
            145.78094,-38.41533,0
            145.78122,-38.41562,0
            145.78192,-38.41624,0
            145.78216,-38.41644,0
            145.7832,-38.41713,0
            145.78333,-38.41719,0
            145.78459,-38.41751,0
            145.78582,-38.41765,0
            145.7862,-38.41772,0
            145.78664,-38.41782,0
            145.78697,-38.41791,0
            145.78789,-38.41826,0
            145.78828,-38.41846,0
            145.78855,-38.41858,0
            145.78903,-38.41887,0
            145.78922,-38.41897,0
            145.78922,-38.41898,0
            145.78936,-38.41912,0
            145.78951,-38.41925,0
            145.78995,-38.41967,0
            145.79026,-38.41994,0
            145.79105,-38.42055,0
            145.79114,-38.42063,0
            145.79146,-38.42087,0
            145.79245,-38.42136,0
            145.79312,-38.4216,0
            145.79316,-38.42161,0
            145.79328,-38.42165,0
            145.79338,-38.42167,0
            145.7948,-38.42206,0
            145.79489,-38.42209,0
            145.79587,-38.42236,0
            145.79616,-38.4225,0
            145.79654,-38.4227,0
            145.79705,-38.42295,0
            145.79817,-38.42384,0
            145.79836,-38.42398,0
            145.79851,-38.42408,0
            145.79994,-38.42497,0
            145.80163,-38.4255,0
            145.80199,-38.42549,0
            145.80315,-38.42549,0
            145.8038,-38.42535,0
            145.80412,-38.42529,0
            145.80519,-38.42479,0
            145.80647,-38.42403,0
            145.80783,-38.42358,0
            145.80875,-38.42343,0
            145.8088,-38.42343,0
            145.81017,-38.42352,0
            145.81027,-38.42352,0
            145.81136,-38.42359,0
            145.81459,-38.42432,0
            145.81517,-38.42443,0
            145.81529,-38.42446,0
            145.81577,-38.42455,0
            145.81659,-38.42482,0
            145.81663,-38.42484,0
            145.81742,-38.42514,0
            145.81834,-38.42566,0
            145.81902,-38.42626,0
            145.81911,-38.42633,0
            145.81963,-38.42679,0
            145.82015,-38.42729,0
            145.82018,-38.42731,0
            145.82022,-38.42735,0
            145.82027,-38.42741,0
            145.82087,-38.42799,0
            145.82087,-38.428,0
            145.82187,-38.42897,0
            145.82285,-38.42977,0
            145.82314,-38.43002,0
            145.82383,-38.43071,0
            145.82386,-38.43075,0
            145.82495,-38.43191,0
            145.82523,-38.43223,0
            145.82526,-38.43227,0
            145.82579,-38.43276,0
            145.82612,-38.4331,0
            145.82637,-38.4333,0
            145.82686,-38.43372,0
            145.82738,-38.43403,0
            145.82739,-38.43404,0
            145.8276,-38.43417,0
            145.82817,-38.43442,0
            145.8288,-38.43461,0
            145.82881,-38.43462,0
            145.82903,-38.43469,0
            145.82988,-38.43486,0
            145.83106,-38.4349,0
            145.83111,-38.43491,0
            145.83129,-38.43489,0
            145.83152,-38.43488,0
            145.83246,-38.43471,0
            145.83679,-38.43364,0
            145.83766,-38.43341,0
            145.83833,-38.43318,0
            145.83898,-38.43294,0
            145.84117,-38.43201,0
            145.84301,-38.43127,0
            145.84321,-38.43118,0
            145.84714,-38.4296,0
            145.8486,-38.42924,0
            145.85023,-38.42923,0
            145.85046,-38.42922,0
            145.85125,-38.42922,0
            145.85337,-38.42936,0
            145.8543,-38.42931,0
            145.85509,-38.42916,0
            145.85568,-38.42898,0
            145.85572,-38.42895,0
            145.85659,-38.4285,0
            145.85666,-38.42844,0
            145.85667,-38.42844,0
            145.85699,-38.42819,0
            145.857,-38.42819,0
            145.85766,-38.4277,0
            145.85767,-38.4277,0
            145.85795,-38.42749,0
            145.85801,-38.42747,0
            145.85801,-38.42746,0
            145.85874,-38.42713,0
            145.85924,-38.42699,0
            145.85946,-38.42692,0
            145.85947,-38.42692,0
            145.86041,-38.42679,0
            145.86192,-38.42689,0
            145.86219,-38.42692,0
            145.86222,-38.42692,0
            145.86305,-38.427,0
            145.8637,-38.427,0
            145.86417,-38.42697,0
            145.86447,-38.42693,0
            145.86569,-38.42669,0
            145.86663,-38.42638,0
            145.86745,-38.42599,0
            145.86811,-38.42561,0
            145.86825,-38.42551,0
            145.86927,-38.42493,0
            145.86937,-38.42488,0
            145.86974,-38.42467,0
            145.87016,-38.42452,0
            145.87059,-38.42438,0
            145.87081,-38.42434,0
            145.87131,-38.42422,0
            145.87168,-38.42417,0
            145.87238,-38.42411,0
            145.87261,-38.4241,0
            145.87269,-38.42409,0
            145.87359,-38.42414,0
            145.8751,-38.4244,0
            145.87606,-38.42475,0
            145.87649,-38.42498,0
            145.87703,-38.42525,0
            145.87887,-38.42659,0
            145.87948,-38.42737,0
            145.87992,-38.42861,0
            145.88033,-38.42951,0
            145.88052,-38.42971,0
            145.88054,-38.42974,0
            145.88068,-38.42988,0
            145.88079,-38.43,0
            145.88081,-38.43003,0
            145.88111,-38.43034,0
            145.88119,-38.4304,0
            145.88141,-38.43052,0
            145.88144,-38.43053,0
            145.88163,-38.43064,0
            145.88293,-38.43133,0
            145.88296,-38.43135,0
            145.88319,-38.43147,0
            145.88388,-38.4321,0
            145.88391,-38.43212,0
            145.88484,-38.43298,0
            145.88516,-38.43317,0
            145.88551,-38.4334,0
            145.88615,-38.43379,0
            145.88663,-38.43396,0
            145.88679,-38.43401,0
            145.88741,-38.43414,0
            145.88876,-38.43418,0
            145.88983,-38.434,0
            145.89117,-38.43341,0
            145.89198,-38.43277,0
            145.89202,-38.43273,0
            145.89263,-38.4322,0
            145.89278,-38.43206,0
            145.89284,-38.43201,0
            145.89308,-38.43186,0
            145.8931,-38.43185,0
            145.89313,-38.43183,0
            145.89385,-38.43146,0
            145.89408,-38.43138,0
            145.89412,-38.43136,0
            145.89431,-38.43129,0
            145.89432,-38.43129,0
            145.89451,-38.43126,0
            145.89455,-38.43125,0
            145.89545,-38.43112,0
            145.89637,-38.43112,0
            145.89712,-38.43118,0
            145.89724,-38.43121,0
            145.8985,-38.4317,0
            145.89938,-38.43227,0
            145.90353,-38.43565,0
            145.90361,-38.43571,0
            145.90428,-38.43712,0
            145.90428,-38.43714,0
            145.90445,-38.4384,0
            145.90451,-38.43877,0
            145.90456,-38.43893,0
            145.90475,-38.43945,0
            145.90482,-38.43962,0
            145.90502,-38.44018,0
            145.9051,-38.4403,0
            145.90529,-38.44063,0
            145.90557,-38.44108,0
            145.90695,-38.44278,0
            145.90721,-38.44308,0
            145.90808,-38.44414,0
            145.9081,-38.44417,0
            145.90869,-38.44467,0
            145.90889,-38.44493,0
            145.9093,-38.44522,0
            145.90931,-38.44523,0
            145.90993,-38.44568,0
            145.91055,-38.44603,0
            145.91073,-38.44614,0
            145.91091,-38.44623,0
            145.91092,-38.44624,0
            145.91148,-38.44656,0
            145.9126,-38.44717,0
            145.91263,-38.44719,0
            145.91373,-38.44771,0
            145.91459,-38.448,0
            145.91588,-38.44831,0
            145.91663,-38.44839,0
            145.91709,-38.44845,0
            145.91829,-38.44848,0
            145.91934,-38.44839,0
            145.91937,-38.44839,0
            145.91938,-38.44838,0
            145.92015,-38.44827,0
            145.92117,-38.44816,0
            145.92211,-38.44817,0
            145.92276,-38.44823,0
            145.92414,-38.44849,0
            145.92435,-38.44854,0
            145.92436,-38.44854,0
            145.92514,-38.44891,0
            145.92522,-38.44894,0
            145.9257,-38.44923,0
            145.92589,-38.44933,0
            145.92602,-38.44941,0
            145.927,-38.45024,0
            145.92736,-38.45063,0
            145.9275,-38.45081,0
            145.92787,-38.45139,0
            145.92826,-38.45225,0
            145.92826,-38.45226,0
            145.9284,-38.45263,0
            145.92849,-38.45407,0
            145.92857,-38.45457,0
            145.92857,-38.45458,0
            145.92869,-38.45534,0
            145.92882,-38.45563,0
            145.92882,-38.45564,0
            145.92907,-38.45618,0
            145.92953,-38.45686,0
            145.93045,-38.45778,0
            145.93118,-38.45835,0
            145.93188,-38.45895,0
            145.93195,-38.459,0
            145.93255,-38.45968,0
            145.93256,-38.45968,0
            145.93269,-38.45982,0
            145.93337,-38.46083,0
            145.93592,-38.46558,0
            145.93629,-38.46611,0
            145.93664,-38.46655,0
            145.93721,-38.46711,0
            145.93765,-38.46748,0
            145.93907,-38.46861,0
            145.94144,-38.47044,0
            145.94162,-38.47059,0
            145.94423,-38.47261,0
            145.94471,-38.473,0
            145.94532,-38.47347,0
            145.94593,-38.47398,0
            145.94623,-38.47427,0
            145.947,-38.47536,0
            145.94709,-38.4755,0
            145.94733,-38.47606,0
            145.9481,-38.47817,0
            145.94831,-38.47869,0
            145.94868,-38.47947,0
            145.94871,-38.47952,0
            145.94872,-38.47964,0
            145.94879,-38.48018,0
            145.9488,-38.48019,0
            145.94883,-38.48026,0
            145.94891,-38.48063,0
            145.94895,-38.48087,0
            145.94895,-38.48088,0
            145.94897,-38.48102,0
            145.94898,-38.48105,0
            145.94898,-38.48106,0
            145.94901,-38.48121,0
            145.94902,-38.48141,0
            145.94901,-38.48166,0
            145.94899,-38.4819,0
            145.94898,-38.48195,0
            145.94898,-38.48196,0
            145.9489,-38.48241,0
            145.94877,-38.48284,0
            145.94871,-38.48301,0
            145.9487,-38.48302,0
            145.94856,-38.48333,0
            145.94846,-38.48352,0
            145.94827,-38.48384,0
            145.94826,-38.48385,0
            145.94807,-38.48414,0
            145.94804,-38.48417,0
            145.94793,-38.48432,0
            145.94772,-38.48456,0
            145.94721,-38.48507,0
            145.94692,-38.4853,0
            145.94653,-38.48564,0
            145.94637,-38.48577,0
            145.946,-38.48604,0
            145.94554,-38.48641,0
            145.94516,-38.48669,0
            145.94223,-38.48903,0
            145.94191,-38.48931,0
            145.94156,-38.48965,0
            145.9414,-38.48982,0
            145.94108,-38.49024,0
            145.94095,-38.49043,0
            145.94074,-38.49079,0
            145.94062,-38.49104,0
            145.94051,-38.49136,0
            145.94046,-38.49148,0
            145.94036,-38.4919,0
            145.94031,-38.49216,0
            145.94029,-38.4923,0
            145.94029,-38.49232,0
            145.94027,-38.4925,0
            145.94026,-38.49303,0
            145.94031,-38.49428,0
            145.94031,-38.49446,0
            145.94036,-38.4959,0
            145.94036,-38.49616,0
            145.9404,-38.49674,0
            145.9404,-38.49687,0
            145.94052,-38.4998,0
            145.94053,-38.49992,0
            145.94058,-38.50136,0
            145.94058,-38.50154,0
            145.94079,-38.50711,0
            145.94079,-38.50729,0
            145.94089,-38.50981,0
            145.94089,-38.50999,0
            145.94091,-38.51053,0
            145.94093,-38.51081,0
            145.94098,-38.51119,0
            145.94106,-38.51154,0
            145.94128,-38.51218,0
            145.9421,-38.51399,0
            145.94219,-38.51417,0
            145.94263,-38.51516,0
            145.94272,-38.51544,0
            145.94282,-38.51585,0
            145.94286,-38.5161,0
            145.94287,-38.51641,0
            145.94287,-38.51686,0
            145.94281,-38.51749,0
            145.9428,-38.51752,0
            145.94267,-38.51855,0
            145.94264,-38.51888,0
            145.94264,-38.51911,0
            145.94265,-38.51939,0
            145.94267,-38.51965,0
            145.94273,-38.51999,0
            145.94284,-38.52043,0
            145.94296,-38.52077,0
            145.94307,-38.52104,0
            145.94323,-38.52135,0
            145.94379,-38.52255,0
            145.94396,-38.52288,0
            145.94472,-38.52451,0
            145.9449,-38.525,0
            145.94497,-38.52528,0
            145.94503,-38.52559,0
            145.94503,-38.52563,0
            145.94504,-38.52577,0
            145.94505,-38.52581,0
            145.94505,-38.52599,0
            145.94506,-38.5261,0
            145.94504,-38.52653,0
            145.94504,-38.52671,0
            145.94501,-38.52761,0
            145.94501,-38.5278,0
            145.94488,-38.53084,0
            145.94488,-38.53107,0
            145.94486,-38.53138,0
            145.94486,-38.53156,0
            145.94485,-38.53174,0
            145.94485,-38.53192,0
            145.94483,-38.53228,0
            145.94483,-38.53246,0
            145.9448,-38.53321,0
            145.94482,-38.53357,0
            145.9449,-38.53403,0
            145.94497,-38.53432,0
            145.94501,-38.53446,0
            145.94505,-38.53455,0
            145.94507,-38.53463,0
            145.94541,-38.53567,0
            145.94541,-38.53568,0
            145.94557,-38.5362,0
            145.94577,-38.53677,0
            145.9459,-38.53725,0
            145.94594,-38.53743,0
            145.94599,-38.5376,0
            145.94608,-38.53796,0
            145.94613,-38.53813,0
            145.94617,-38.53831,0
            145.94622,-38.53848,0
            145.94624,-38.53853,0
            145.94628,-38.53893,0
            145.94629,-38.53909,0
            145.94629,-38.5392,0
            145.94628,-38.53938,0
            145.94628,-38.53951,0
            145.94585,-38.54151,0
            145.94583,-38.54169,0
            145.94582,-38.54187,0
            145.94585,-38.54241,0
            145.94585,-38.54255,0
            145.94591,-38.54313,0
            145.94593,-38.54326,0
            145.94608,-38.54367,0
            145.94628,-38.54409,0
            145.94632,-38.54415,0
            145.94663,-38.54477,0
            145.9467,-38.54506,0
            145.94673,-38.54536,0
            145.94674,-38.54539,0
            145.94671,-38.54581,0
            145.94671,-38.54614,0
            145.9468,-38.54616,0
            145.94683,-38.54618,0
            145.94688,-38.5462,0
            145.94697,-38.54626,0
            145.94698,-38.54629,0
            145.94699,-38.54631,0
            145.94699,-38.54634,0
            145.94697,-38.54644,0
            145.94697,-38.54658,0
            145.94702,-38.54672,0
            145.94707,-38.54683,0
            145.94712,-38.54692,0
            145.94713,-38.54695,0
            145.94715,-38.54696,0
            145.94719,-38.547,0
            145.94729,-38.54704,0
            145.94782,-38.5468,0
            145.94789,-38.5469,0
            145.94803,-38.54707,0
            145.94837,-38.54743,0
            145.9486,-38.54765,0
            145.94871,-38.54774,0
            145.94905,-38.54796,0
            145.94923,-38.54809,0
            145.94955,-38.5483,0
            145.94957,-38.54831,0
            145.95,-38.54858,0
            145.95024,-38.54832,0
            145.95032,-38.54825,0
            145.95118,-38.5488,0
            145.95121,-38.54881,0
            145.95158,-38.54903,0
            145.95177,-38.54913,0
            145.95195,-38.54924,0
            145.95237,-38.54947,0
            145.9531,-38.54992,0
            145.95399,-38.55068,0
            145.95423,-38.55102,0
            145.9543,-38.55116,0
            145.95495,-38.55231,0
            145.95497,-38.55234,0
            145.95512,-38.55284,0
            145.95518,-38.55301,0
            145.95536,-38.55359,0
            145.9554,-38.55378,0
            145.95538,-38.55389,0
            145.95536,-38.55407,0
            145.95518,-38.55514,0
            145.95514,-38.55531,0
            145.95508,-38.55567,0
            145.95503,-38.55591,0
            145.95494,-38.5562,0
            145.95488,-38.55637,0
            145.95478,-38.55672,0
            145.95439,-38.55797,0
            145.95415,-38.5589,0
            145.95409,-38.55927,0
            145.95408,-38.55964,0
            145.95412,-38.55997,0
            145.95423,-38.5603,0
            145.95431,-38.56049,0
            145.95438,-38.56063,0
            145.95439,-38.56066,0
            145.95451,-38.56086,0
            145.95492,-38.56137,0
            145.95532,-38.56174,0
            145.95536,-38.56176,0
            145.95554,-38.56187,0
            145.95573,-38.56197,0
            145.95602,-38.56214,0
            145.95647,-38.56233,0
            145.95679,-38.56243,0
            145.95691,-38.56245,0
            145.95711,-38.5625,0
            145.95713,-38.5625,0
            145.95727,-38.56253,0
            145.95735,-38.56254,0
            145.95737,-38.56255,0
            145.95758,-38.56258,0
            145.95804,-38.5626,0
            145.95827,-38.56262,0
            145.95894,-38.56271,0
            145.95917,-38.56275,0
            145.95974,-38.56283,0
            145.96034,-38.56296,0
            145.96211,-38.56376,0
            145.96299,-38.56393,0
            145.96321,-38.56396,0
            145.96366,-38.56404,0
            145.96561,-38.56434,0
            145.96569,-38.56436,0
            145.96636,-38.56448,0
            145.96658,-38.56451,0
            145.96686,-38.56456,0
            145.96703,-38.5646,0
            145.96704,-38.56461,0
            145.9671,-38.56462,0
            145.96717,-38.56464,0
            145.96741,-38.56474,0
            145.96867,-38.56522,0
            145.9693,-38.56548,0
            145.96993,-38.56572,0
            145.9706,-38.566,0
            145.97092,-38.56616,0
            145.97147,-38.56648,0
            145.97148,-38.56648,0
            145.97188,-38.56677,0
            145.97246,-38.56726,0
            145.97305,-38.5678,0
            145.97382,-38.56847,0
            145.97397,-38.56861,0
            145.97404,-38.56866,0
            145.97412,-38.56874,0
            145.97519,-38.56968,0
            145.97534,-38.56982,0
            145.97565,-38.57009,0
            145.97616,-38.57094,0
            145.97653,-38.57135,0
            145.9766,-38.57142,0
            145.97665,-38.5715,0
            145.97677,-38.57165,0
            145.97688,-38.57181,0
            145.97712,-38.57213,0
            145.97737,-38.5725,0
            145.97756,-38.57275,0
            145.97793,-38.5732,0
            145.97796,-38.57323,0
            145.97805,-38.57336,0
            145.9782,-38.57354,0
            145.97853,-38.57397,0
            145.97928,-38.57489,0
            145.97943,-38.57501,0
            145.97956,-38.57513,0
            145.97986,-38.57536,0
            145.98028,-38.57562,0
            145.98047,-38.57572,0
            145.98087,-38.57588,0
            145.98173,-38.57616,0
            145.98178,-38.57617,0
            145.98224,-38.57634,0
            145.98235,-38.57639,0
            145.98256,-38.57647,0
            145.98382,-38.5769,0
            145.98384,-38.57691,0
            145.98467,-38.57718,0
            145.98489,-38.57724,0
            145.9851,-38.57731,0
            145.98532,-38.57737,0
            145.98543,-38.57741,0
            145.98553,-38.57744,0
            145.9861,-38.57768,0
            145.98614,-38.57769,0
            145.9863,-38.57777,0
            145.98637,-38.5778,0
            145.98667,-38.57798,0
            145.98668,-38.57799,0
            145.98684,-38.5781,0
            145.98727,-38.57844,0
            145.98782,-38.57898,0
            145.98806,-38.57917,0
            145.98811,-38.5792,0
            145.98845,-38.57946,0
            145.98925,-38.57992,0
            145.98947,-38.58002,0
            145.98993,-38.5802,0
            145.98995,-38.58021,0
            145.99055,-38.58042,0
            145.9908,-38.58052,0
            145.99098,-38.58061,0
            145.99128,-38.58074,0
            145.99173,-38.58089,0
            145.99191,-38.58096,0
            145.99212,-38.58103,0
            145.99253,-38.58119,0
            145.9928,-38.58128,0
            145.99325,-38.58139,0
            145.99328,-38.58139,0
            145.9933,-38.5814,0
            145.99334,-38.5814,0
            145.99341,-38.58138,0
            145.99342,-38.58138,0
            145.99344,-38.58137,0
            145.99354,-38.58137,0
            145.99395,-38.58142,0
            145.99431,-38.58144,0
            145.99476,-38.58144,0
            145.9951,-38.58147,0
            145.99576,-38.58156,0
            145.9978,-38.58198,0
            145.99843,-38.58209,0
            145.99931,-38.58215,0
            145.99981,-38.58216,0
            146.00037,-38.58223,0
            146.00086,-38.58231,0
            146.00094,-38.58233,0
            146.00181,-38.58247,0
            146.00212,-38.58249,0
            146.00278,-38.58249,0
            146.00299,-38.58248,0
            146.00328,-38.58248,0
            146.00391,-38.58241,0
            146.00448,-38.58231,0
            146.00494,-38.58221,0
            146.00502,-38.58218,0
            146.00594,-38.5819,0
            146.00602,-38.58206,0
            146.00609,-38.58224,0
            146.00699,-38.58193,0
            146.00736,-38.58178,0
            146.00766,-38.58163,0
            146.00803,-38.58143,0
            146.00938,-38.58058,0
            146.01129,-38.57931,0
            146.01198,-38.57889,0
            146.0121,-38.57877,0
            146.0123,-38.57863,0
            146.01238,-38.57859,0
            146.01257,-38.57848,0
            146.0126,-38.57847,0
            146.0137,-38.57793,0
            146.01379,-38.57788,0
            146.01412,-38.57772,0
            146.01428,-38.57767,0
            146.01444,-38.57764,0
            146.01463,-38.57762,0
            146.01482,-38.57767,0
            146.01588,-38.57753,0
            146.01589,-38.57757,0
            146.01591,-38.57759,0
            146.01591,-38.5776,0
            146.01593,-38.57761,0
            146.01596,-38.57761,0
            146.01598,-38.57762,0
            146.0161,-38.57762,0
            146.01649,-38.57755,0
            146.01671,-38.57752,0
            146.01672,-38.57751,0
            146.01693,-38.57748,0
            146.01694,-38.57748,0
            146.01851,-38.57721,0
            146.02145,-38.57675,0
            146.02147,-38.57675,0
            146.02199,-38.57667,0
            146.02212,-38.57664,0
            146.02214,-38.57663,0
            146.02216,-38.57661,0
            146.02217,-38.57661,0
            146.02219,-38.57659,0
            146.0222,-38.57657,0
            146.02222,-38.57651,0
            146.02284,-38.57643,0
            146.02288,-38.57643,0
            146.02319,-38.5764,0
            146.02375,-38.5764,0
            146.02445,-38.57643,0
            146.02559,-38.57652,0
            146.02851,-38.57671,0
            146.02857,-38.57677,0
            146.02892,-38.57696,0
            146.02926,-38.57719,0
            146.02957,-38.57746,0
            146.02985,-38.57775,0
            146.03015,-38.57809,0
            146.03122,-38.57941,0
            146.03124,-38.57944,0
            146.03221,-38.58062,0
            146.0365,-38.5861,0
            146.03654,-38.58614,0
            146.0366,-38.58618,0
            146.03675,-38.58624,0
            146.03681,-38.58626,0
            146.03691,-38.58626,0
            146.03699,-38.58623,0
            146.03706,-38.58621,0
            146.03711,-38.58619,0
            146.0393,-38.58899,0
            146.03987,-38.58968,0
            146.03989,-38.5897,0
            146.04143,-38.5917,0
            146.04144,-38.59172,0
            146.04276,-38.59339,0
            146.04277,-38.5934,0
            146.04612,-38.59767,0
            146.04613,-38.59768,0
            146.04649,-38.59814,0
            146.04685,-38.59864,0
            146.04704,-38.59893,0
            146.04708,-38.599,0
            146.04723,-38.59933,0
            146.04748,-38.6,0
            146.04756,-38.60033,0
            146.0476,-38.60057,0
            146.04763,-38.60084,0
            146.04764,-38.60089,0
            146.04761,-38.60139,0
            146.0475,-38.60191,0
            146.04749,-38.60193,0
            146.04738,-38.60226,0
            146.04733,-38.60244,0
            146.04661,-38.60468,0
            146.04648,-38.60498,0
            146.04629,-38.60547,0
            146.04626,-38.60556,0
            146.04605,-38.60608,0
            146.04599,-38.60625,0
            146.04596,-38.60637,0
            146.04594,-38.60643,0
            146.04581,-38.60674,0
            146.04547,-38.60763,0
            146.04541,-38.60781,0
            146.04509,-38.60867,0
            146.04502,-38.60884,0
            146.04457,-38.61005,0
            146.04443,-38.61039,0
            146.04366,-38.61239,0
            146.04314,-38.61385,0
            146.04248,-38.61557,0
            146.04243,-38.61568,0
            146.04215,-38.61643,0
            146.0421,-38.61661,0
            146.042,-38.61689,0
            146.04197,-38.61695,0
            146.04149,-38.61815,0
            146.04143,-38.61833,0
            146.04129,-38.61866,0
            146.04073,-38.62015,0
            146.04072,-38.62017,0
            146.04045,-38.62091,0
            146.0404,-38.62102,0
            146.03995,-38.6222,0
            146.03995,-38.62222,0
            146.03968,-38.62291,0
            146.03962,-38.62308,0
            146.03935,-38.62377,0
            146.03923,-38.62412,0
            146.03877,-38.62533,0
            146.03863,-38.62567,0
            146.03844,-38.62619,0
            146.03812,-38.62701,0
            146.03811,-38.62705,0
            146.03719,-38.62946,0
            146.03713,-38.62964,0
            146.03709,-38.62973,0
            146.03581,-38.63308,0
            146.03575,-38.63326,0
            146.03241,-38.64204,0
            146.03241,-38.64205,0
            146.03175,-38.64377,0
            146.03169,-38.64395,0
            146.03162,-38.64412,0
            146.03156,-38.64429,0
            146.03149,-38.64446,0
            146.03143,-38.64463,0
            146.03143,-38.64464,0
            146.0309,-38.64601,0
            146.0309,-38.64602,0
            146.03081,-38.64627,0
            146.03077,-38.64636,0
            146.03011,-38.64808,0
            146.03005,-38.64826,0
            146.02972,-38.64911,0
            146.02972,-38.64912,0
            146.02945,-38.6498,0
            146.02945,-38.64981,0
            146.02919,-38.65049,0
            146.02919,-38.6505,0
            146.02912,-38.65067,0
            146.02906,-38.65084,0
            146.02886,-38.65135,0
            146.02886,-38.65136,0
            146.02859,-38.65206,0
            146.02814,-38.65196,0
            146.02767,-38.65183,0
            146.0276,-38.65193,0
            146.02754,-38.65203,0
            146.02708,-38.65331,0
            146.02618,-38.65561,0
            146.02613,-38.65576,0
            146.02608,-38.65585,0
            146.02602,-38.65593,0
            146.026,-38.65594,0
            146.02596,-38.65598,0
            146.02581,-38.65605,0
            146.02578,-38.65607,0
            146.02536,-38.65623,0
            146.02418,-38.65671,0
            146.02417,-38.65671,0
            146.02336,-38.65704,0
            146.02322,-38.65709,0
            146.02316,-38.65712,0
            146.02315,-38.65712,0
            146.02295,-38.6572,0
            146.02274,-38.65727,0
            146.02265,-38.65731,0
            146.02218,-38.65744,0
            146.02163,-38.65752,0
            146.0214,-38.65754,0
            146.02096,-38.6576,0
            146.01886,-38.65784,0
            146.01861,-38.65908,0
            146.01861,-38.65909,0
            146.01841,-38.65996,0
            146.01841,-38.65997,0
            146.01837,-38.66014,0
            146.01834,-38.66031,0
            146.01826,-38.66068,0
            146.01815,-38.66132,0
            146.01798,-38.66209,0
            146.01798,-38.6621,0
            146.0179,-38.66244,0
            146.0179,-38.66245,0
            146.01788,-38.66253,0
            146.01782,-38.6629,0
            146.0178,-38.66316,0
            146.0178,-38.66335,0
            146.01785,-38.66357,0
            146.01793,-38.66379,0
            146.01806,-38.66407,0
            146.0182,-38.66428,0
            146.0183,-38.66441,0
            146.01841,-38.66453,0
            146.01853,-38.66464,0
            146.01862,-38.66468,0
            146.01892,-38.66484,0
            146.01918,-38.66495,0
            146.01951,-38.66507,0
            146.01962,-38.6651,0
            146.01982,-38.66513,0
            146.02026,-38.66518,0
            146.02163,-38.66538,0
            146.02169,-38.6654,0
            146.02201,-38.66548,0
            146.02235,-38.66559,0
            146.0226,-38.66569,0
            146.02273,-38.66575,0
            146.0229,-38.66584,0
            146.02321,-38.66604,0
            146.0237,-38.66644,0
            146.02383,-38.66657,0
            146.02393,-38.66668,0
            146.02413,-38.66663,0
            146.02431,-38.6666,0
            146.02441,-38.66657,0
            146.02449,-38.66654,0
            146.02457,-38.66649,0
            146.02461,-38.66646,0
            146.02489,-38.66695,0
            146.0249,-38.66696,0
            146.02505,-38.66719,0
            146.02523,-38.66742,0
            146.02527,-38.66748,0
            146.02661,-38.66908,0
            146.02671,-38.66919,0
            146.02674,-38.66923,0
            146.02877,-38.67163,0
            146.02884,-38.67172,0
            146.0289,-38.67178,0
            146.0294,-38.67238,0
            146.02941,-38.67238,0
            146.03037,-38.67354,0
            146.03128,-38.6746,0
            146.03153,-38.67485,0
            146.0317,-38.675,0
            146.03175,-38.67505,0
            146.03191,-38.67518,0
            146.03208,-38.6753,0
            146.03213,-38.67534,0
            146.03255,-38.67563,0
            146.03278,-38.67576,0
            146.03317,-38.67596,0
            146.03356,-38.67614,0
            146.03357,-38.67614,0
            146.03377,-38.67623,0
            146.03378,-38.67623,0
            146.03438,-38.67647,0
            146.03482,-38.67666,0
            146.03607,-38.67714,0
            146.03636,-38.67726,0
            146.03637,-38.67726,0
            146.03762,-38.67777,0
            146.03779,-38.67785,0
            146.03779,-38.67786,0
            146.03812,-38.67802,0
            146.03853,-38.67827,0
            146.03854,-38.67828,0
            146.03872,-38.67838,0
            146.03948,-38.67894,0
            146.03992,-38.67923,0
            146.0401,-38.67933,0
            146.04011,-38.67933,0
            146.0403,-38.67942,0
            146.04031,-38.67943,0
            146.04049,-38.67952,0
            146.04089,-38.6797,0
            146.0409,-38.67971,0
            146.04133,-38.67987,0
            146.04174,-38.68,0
            146.0422,-38.68012,0
            146.04247,-38.68017,0
            146.04261,-38.68019,0
            146.04264,-38.6802,0
            146.04289,-38.68024,0
            146.04379,-38.68035,0
            146.04421,-38.68039,0
            146.04427,-38.6804,0
            146.04446,-38.68041,0
            146.04511,-38.68047,0
            146.04515,-38.68047,0
            146.04718,-38.68068,0
            146.04721,-38.68069,0
            146.04775,-38.68074,0
            146.04811,-38.68079,0
            146.04881,-38.68095,0
            146.04948,-38.68117,0
            146.04996,-38.68136,0
            146.05021,-38.68148,0
            146.05026,-38.6815,0
            146.05068,-38.68172,0
            146.05102,-38.68191,0
            146.05115,-38.68197,0
            146.05159,-38.68221,0
            146.0516,-38.68222,0
            146.05216,-38.68252,0
            146.05328,-38.68315,0
            146.05418,-38.68362,0
            146.05498,-38.68406,0
            146.05709,-38.68514,0
            146.05915,-38.68625,0
            146.05925,-38.68631,0
            146.05938,-38.68636,0
            146.05951,-38.68642,0
            146.06009,-38.68663,0
            146.06078,-38.68682,0
            146.0615,-38.68697,0
            146.06169,-38.687,0
            146.06214,-38.6871,0
            146.06217,-38.6871,0
            146.06262,-38.6872,0
            146.0628,-38.68723,0
            146.063,-38.68728,0
            146.0657,-38.68779,0
            146.06597,-38.68785,0
            146.06619,-38.68789,0
            146.06636,-38.68793,0
            146.06854,-38.68835,0
            146.06881,-38.68841,0
            146.06883,-38.68842,0
            146.06924,-38.68855,0
            146.06925,-38.68855,0
            146.06945,-38.68862,0
            146.06946,-38.68862,0
            146.0695,-38.68863,0
            146.06998,-38.68884,0
            146.07006,-38.68887,0
            146.07026,-38.68897,0
            146.07032,-38.68899,0
            146.07082,-38.68928,0
            146.07091,-38.68934,0
            146.071,-38.68941,0
            146.07126,-38.68958,0
            146.07199,-38.69015,0
            146.07201,-38.69016,0
            146.0723,-38.69038,0
            146.07232,-38.6904,0
            146.07299,-38.69089,0
            146.07301,-38.69091,0
            146.07397,-38.69165,0
            146.07478,-38.69225,0
            146.07484,-38.69229,0
            146.07497,-38.6924,0
            146.07514,-38.69252,0
            146.07547,-38.69277,0
            146.0755,-38.6928,0
            146.07563,-38.6929,0
            146.07567,-38.69292,0
            146.07568,-38.69294,0
            146.07602,-38.6932,0
            146.07623,-38.69335,0
            146.07648,-38.69351,0
            146.0765,-38.69353,0
            146.07652,-38.69353,0
            146.07705,-38.6938,0
            146.07711,-38.69382,0
            146.07734,-38.69392,0
            146.07747,-38.69396,0
            146.07753,-38.69397,0
            146.07778,-38.69405,0
            146.07795,-38.69409,0
            146.07855,-38.6942,0
            146.07911,-38.69424,0
            146.07944,-38.69425,0
            146.07973,-38.69422,0
            146.07996,-38.69421,0
            146.08018,-38.69417,0
            146.08025,-38.69415,0
            146.08062,-38.69408,0
            146.08299,-38.69347,0
            146.08303,-38.69347,0
            146.0831,-38.69346,0
            146.08307,-38.69336,0
            146.08304,-38.69328,0
            146.08375,-38.69312,0
            146.08385,-38.69309,0
            146.08396,-38.69309,0
            146.0843,-38.69313,0
            146.08438,-38.69312,0
            146.08443,-38.69312,0
            146.08545,-38.69299,0
            146.08575,-38.69299,0
            146.08598,-38.69298,0
            146.08659,-38.693,0
            146.08718,-38.69305,0
            146.0875,-38.69309,0
            146.08817,-38.69323,0
            146.08881,-38.69343,0
            146.08937,-38.69367,0
            146.09195,-38.6949,0
            146.09223,-38.695,0
            146.09237,-38.69506,0
            146.09254,-38.6951,0
            146.09304,-38.69524,0
            146.09329,-38.69529,0
            146.09342,-38.69531,0
            146.09345,-38.69531,0
            146.09373,-38.69534,0
            146.09438,-38.69534,0
            146.09501,-38.69528,0
            146.09555,-38.69518,0
            146.09613,-38.69502,0
            146.09634,-38.69495,0
            146.0965,-38.69491,0
            146.09658,-38.69488,0
            146.09684,-38.69483,0
            146.09721,-38.69478,0
            146.09758,-38.69475,0
            146.09783,-38.69474,0
            146.09805,-38.69474,0
            146.09821,-38.69475,0
            146.09867,-38.6948,0
            146.09893,-38.69484,0
            146.09908,-38.69487,0
            146.09928,-38.69492,0
            146.09971,-38.69506,0
            146.09973,-38.69506,0
            146.10015,-38.69521,0
            146.10052,-38.69533,0
            146.1007,-38.69538,0
            146.10101,-38.69545,0
            146.10143,-38.69553,0
            146.10167,-38.69555,0
            146.10217,-38.69557,0
            146.10257,-38.69555,0
            146.1028,-38.69553,0
            146.10305,-38.69549,0
            146.10308,-38.69549,0
            146.10327,-38.69545,0
            146.10335,-38.69544,0
            146.10365,-38.69536,0
            146.10371,-38.69535,0
            146.10422,-38.69519,0
            146.10477,-38.69494,0
            146.10558,-38.69462,0
            146.10578,-38.69456,0
            146.10579,-38.69456,0
            146.10626,-38.69446,0
            146.10875,-38.69418,0
            146.10887,-38.69416,0
            146.1092,-38.69413,0
            146.11421,-38.69352,0
            146.11464,-38.69349,0
            146.11692,-38.69316,0
            146.11694,-38.69315,0
            146.1192,-38.69282,0
            146.11943,-38.69278,0
            146.12053,-38.69263,0
            146.12074,-38.69259,0
            146.12126,-38.69252,0
            146.12541,-38.69187,0
            146.1257,-38.69181,0
            146.12695,-38.69149,0
            146.12731,-38.69138,0
            146.12903,-38.69094,0
            146.12905,-38.69094,0
            146.13401,-38.68963,0
            146.13446,-38.68953,0
            146.13496,-38.68944,0
            146.13538,-38.68939,0
            146.13583,-38.68937,0
            146.13666,-38.68938,0
            146.13685,-38.68939,0
            146.14162,-38.68995,0
            146.14198,-38.68998,0
            146.14211,-38.69,0
            146.14224,-38.69001,0
            146.14257,-38.69002,0
            146.14297,-38.69002,0
            146.14326,-38.69001,0
            146.14336,-38.69,0
            146.14349,-38.69,0
            146.14372,-38.68998,0
            146.14418,-38.68996,0
            146.14441,-38.68994,0
            146.14444,-38.68994,0
            146.14468,-38.68991,0
            146.14509,-38.68984,0
            146.1453,-38.68978,0
            146.14531,-38.68978,0
            146.14566,-38.68968,0
            146.14583,-38.68962,0
            146.14614,-38.68948,0
            146.14664,-38.68922,0
            146.14671,-38.68917,0
            146.14684,-38.68909,0
            146.14713,-38.68888,0
            146.14739,-38.68865,0
            146.1475,-38.68854,0
            146.14777,-38.68823,0
            146.14779,-38.68822,0
            146.14789,-38.68809,0
            146.148,-38.68792,0
            146.14817,-38.68759,0
            146.14825,-38.68742,0
            146.14825,-38.68741,0
            146.14832,-38.68725,0
            146.14836,-38.68714,0
            146.1484,-38.68705,0
            146.14847,-38.68693,0
            146.14896,-38.6862,0
            146.14926,-38.68585,0
            146.14947,-38.68564,0
            146.14973,-38.68541,0
            146.14989,-38.68528,0
            146.14991,-38.68526,0
            146.15014,-38.68507,0
            146.15073,-38.6847,0
            146.15112,-38.68449,0
            146.15166,-38.68424,0
            146.15171,-38.68423,0
            146.15222,-38.68405,0
            146.15269,-38.68391,0
            146.15365,-38.68366,0
            146.15365,-38.68365,0
            146.1539,-38.68358,0
            146.15414,-38.68349,0
            146.15475,-38.68323,0
            146.15515,-38.68302,0
            146.15532,-38.68292,0
            146.15579,-38.68262,0
            146.1558,-38.68261,0
            146.15599,-38.68246,0
            146.15637,-38.68214,0
            146.15684,-38.68167,0
            146.15698,-38.68152,0
            146.157,-38.68151,0
            146.15753,-38.68096,0
            146.15808,-38.68036,0
            146.15812,-38.68031,0
            146.15849,-38.67993,0
            146.15851,-38.67992,0
            146.15939,-38.67898,0
            146.15973,-38.67864,0
            146.15987,-38.67849,0
            146.15992,-38.67843,0
            146.16024,-38.67809,0
            146.16084,-38.67749,0
            146.16273,-38.67567,0
            146.16315,-38.67525,0
            146.1633,-38.67511,0
            146.16372,-38.67468,0
            146.16391,-38.6745,0
            146.16451,-38.67402,0
            146.16452,-38.67401,0
            146.16542,-38.6734,0
            146.16758,-38.67185,0
            146.16763,-38.67181,0
            146.16826,-38.67136,0
            146.16831,-38.67133,0
            146.16843,-38.67124,0
            146.16874,-38.67104,0
            146.16878,-38.67101,0
            146.16949,-38.67062,0
            146.16982,-38.67045,0
            146.16993,-38.67041,0
            146.17013,-38.67032,0
            146.17055,-38.67018,0
            146.17121,-38.67,0
            146.17171,-38.66989,0
            146.17229,-38.66982,0
            146.17311,-38.66977,0
            146.17394,-38.66977,0
            146.17425,-38.66978,0
            146.1774,-38.66975,0
            146.17763,-38.66974,0
            146.17813,-38.66974,0
            146.17881,-38.66971,0
            146.18519,-38.66969,0
            146.18542,-38.66968,0
            146.18648,-38.66967,0
            146.18759,-38.66964,0
            146.18831,-38.6696,0
            146.18883,-38.66954,0
            146.18998,-38.6693,0
            146.19084,-38.66904,0
            146.1925,-38.66842,0
            146.19271,-38.66835,0
            146.19313,-38.66819,0
            146.19334,-38.66812,0
            146.19396,-38.66788,0
            146.19405,-38.66819,0
            146.19541,-38.66775,0
            146.19617,-38.66747,0
            146.19638,-38.6674,0
            146.1971,-38.66713,0
            146.19952,-38.66627,0
            146.19956,-38.66625,0
            146.20257,-38.66519,0
            146.20318,-38.66502,0
            146.20372,-38.66489,0
            146.20393,-38.66482,0
            146.20412,-38.66474,0
            146.20422,-38.66469,0
            146.20473,-38.6644,0
            146.20542,-38.66406,0
            146.2088,-38.66281,0
            146.20896,-38.66299,0
            146.20913,-38.6632,0
            146.20935,-38.66311,0
            146.21144,-38.66234,0
            146.21165,-38.66227,0
            146.2154,-38.66089,0
            146.21561,-38.66082,0
            146.21612,-38.66063,0
            146.21656,-38.66052,0
            146.21674,-38.66049,0
            146.21701,-38.66046,0
            146.21732,-38.66045,0
            146.21806,-38.66045,0
            146.21898,-38.66055,0
            146.22033,-38.66075,0
            146.22031,-38.66055,0
            146.22028,-38.66037,0
            146.24355,-38.6636,0
            146.24378,-38.66364,0
            146.24831,-38.66427,0
            146.24854,-38.66431,0
            146.2508,-38.66462,0
            146.25103,-38.66466,0
            146.26737,-38.66691,0
            146.26797,-38.66694,0
            146.26855,-38.66702,0
            146.26922,-38.66707,0
            146.27,-38.66709,0
            146.27057,-38.66709,0
            146.2708,-38.66708,0
            146.27103,-38.66708,0
            146.27207,-38.66705,0
            146.27249,-38.66702,0
            146.27316,-38.66702,0
            146.27569,-38.66692,0
            146.27592,-38.66692,0
            146.28397,-38.66662,0
            146.2842,-38.66662,0
            146.28533,-38.66658,0
            146.28642,-38.66652,0
            146.29269,-38.66627,0
            146.29278,-38.66626,0
            146.305,-38.66583,0
            146.30523,-38.66583,0
            146.30984,-38.66568,0
            146.31118,-38.66569,0
            146.31278,-38.66582,0
            146.31301,-38.66585,0
            146.31598,-38.66615,0
            146.31621,-38.66618,0
            146.31644,-38.6662,0
            146.31666,-38.66623,0
            146.32568,-38.66712,0
            146.32585,-38.66713,0
            146.33134,-38.66766,0
            146.33157,-38.66769,0
            146.33431,-38.66795,0
            146.33454,-38.66798,0
            146.35012,-38.66949,0
            146.35034,-38.66952,0
            146.362,-38.67065,0
            146.36223,-38.67068,0
            146.37595,-38.67199,0
            146.38239,-38.67256,0
            146.38261,-38.67259,0
            146.3858,-38.67287,0
            146.38653,-38.67295,0
            146.38737,-38.67301,0
            146.39087,-38.67333,0
            146.39169,-38.67342,0
            146.39237,-38.67348,0
            146.39348,-38.6736,0
            146.3935,-38.6736,0
            146.39373,-38.67363,0
            146.39396,-38.67365,0
            146.3951,-38.67379,0
            146.3966,-38.67379,0
            146.39683,-38.67378,0
            146.39729,-38.67378,0
            146.39886,-38.67363,0
            146.40629,-38.67224,0
            146.40651,-38.67219,0
            146.40808,-38.6719,0
            146.4083,-38.67185,0
            146.41121,-38.67131,0
            146.41144,-38.67126,0
            146.413,-38.67097,0
            146.41323,-38.67092,0
            146.43753,-38.6663,0
            146.4375,-38.66637,0
            146.4373,-38.66729,0
            146.43729,-38.66732,0
            146.43727,-38.66746,0
            146.43725,-38.66753,0
            146.43721,-38.66773,0
            146.4372,-38.66775,0
            146.43713,-38.66812,0
            146.43713,-38.66821,0
            146.43712,-38.66825,0
            146.43711,-38.66846,0
            146.43713,-38.6687,0
            146.43715,-38.6688,0
            146.43718,-38.66891,0
            146.43721,-38.669,0
            146.43731,-38.66921,0
            146.43739,-38.66934,0
            146.43746,-38.66944,0
            146.43747,-38.66946,0
            146.43765,-38.66967,0
            146.43789,-38.66987,0
            146.43801,-38.66996,0
            146.43822,-38.67008,0
            146.43857,-38.67025,0
            146.43897,-38.67043,0
            146.43938,-38.6706,0
            146.43968,-38.67074,0
            146.44115,-38.67137,0
            146.44128,-38.67126,0
            146.44152,-38.67138,0
            146.4426,-38.67186,0
            146.44261,-38.67186,0
            146.44284,-38.67197,0
            146.44285,-38.67197,0
            146.44311,-38.67209,0
            146.44343,-38.67222,0
            146.44358,-38.67227,0
            146.4459,-38.67327,0
            146.44649,-38.67354,0
            146.44654,-38.67357,0
            146.44664,-38.6736,0
            146.44666,-38.6736,0
            146.44669,-38.67361,0
            146.4468,-38.67363,0
            146.44694,-38.67368,0
            146.44748,-38.67392,0
            146.44763,-38.67398,0
            146.44768,-38.67401,0
            146.44929,-38.67471,0
            146.44935,-38.67475,0
            146.44943,-38.67479,0
            146.44953,-38.67485,0
            146.44963,-38.67492,0
            146.44965,-38.67494,0
            146.4497,-38.67498,0
            146.44975,-38.67503,0
            146.44978,-38.67507,0
            146.44981,-38.6751,0
            146.44983,-38.67515,0
            146.44989,-38.67527,0
            146.45008,-38.6757,0
            146.45021,-38.67596,0
            146.4517,-38.67919,0
            146.45173,-38.67921,0
            146.45174,-38.67923,0
            146.45177,-38.67924,0
            146.45201,-38.67936,0
            146.45215,-38.67942,0
            146.45225,-38.67945,0
            146.45226,-38.67945,0
            146.45232,-38.67946,0
            146.45245,-38.67947,0
            146.4529,-38.67953,0
            146.45313,-38.67955,0
            146.45852,-38.68023,0
            146.45857,-38.68023,0
            146.45861,-38.68025,0
            146.45862,-38.68026,0
            146.45862,-38.68028,0
            146.4586,-38.6804,0
            146.4586,-38.68046,0
            146.45862,-38.68052,0
            146.45868,-38.68058,0
            146.45895,-38.68093,0
            146.46013,-38.68283,0
            146.46059,-38.68349,0
            146.46069,-38.68362,0
            146.4607,-38.68365,0
            146.46266,-38.6866,0
            146.46333,-38.68765,0
            146.46344,-38.68781,0
            146.46354,-38.68797,0
            146.46365,-38.68813,0
            146.46478,-38.68989,0
            146.46479,-38.6899,0
            146.46527,-38.69059,0
            146.46535,-38.69073,0
            146.46535,-38.69082,0
            146.46536,-38.69085,0
            146.46536,-38.69088,0
            146.46537,-38.69091,0
            146.46539,-38.69094,0
            146.46561,-38.69122,0
            146.46576,-38.69148,0
            146.46578,-38.69153,0
            146.46583,-38.69161,0
            146.46586,-38.69164,0
            146.46589,-38.69169,0
            146.46591,-38.69171,0
            146.46593,-38.69174,0
            146.46594,-38.69177,0
            146.46596,-38.6918,0
            146.46597,-38.69183,0
            146.46598,-38.69185,0
            146.466,-38.69188,0
            146.466,-38.69198,0
            146.46599,-38.69199,0
            146.46595,-38.69206,0
            146.46588,-38.69216,0
            146.46587,-38.69217,0
            146.46582,-38.69224,0
            146.46581,-38.69227,0
            146.46581,-38.6923,0
            146.4658,-38.69233,0
            146.4658,-38.69239,0
            146.46582,-38.69258,0
            146.46584,-38.69268,0
            146.46585,-38.69287,0
            146.46587,-38.69298,0
            146.46598,-38.6934,0
            146.46601,-38.69355,0
            146.46603,-38.69369,0
            146.46603,-38.69386,0
            146.46602,-38.69397,0
            146.46602,-38.69402,0
            146.46601,-38.69415,0
            146.46601,-38.69423,0
            146.4659,-38.69493,0
            146.46581,-38.69522,0
            146.46555,-38.69643,0
            146.46548,-38.69687,0
            146.46544,-38.69703,0
            146.46508,-38.69874,0
            146.45992,-38.69808,0
            146.45969,-38.6991,0
          </coordinates>
        </LineString>
      </Placemark>
      <Placemark>
        <name>Nyora Railway Station</name>
        <styleUrl>#icon-1899-DB4436-nodesc</styleUrl>
        <Point>
          <coordinates>
            145.670528,-38.333255,0
          </coordinates>
        </Point>
      </Placemark>
      <Placemark>
        <name>Port Welshpool VIC</name>
        <styleUrl>#icon-1899-DB4436-nodesc</styleUrl>
        <Point>
          <coordinates>
            146.4596856,-38.6991044,0
          </coordinates>
        </Point>
      </Placemark>
    </Folder>
    <Folder>
      <name>Untitled layer</name>
      <Placemark>
        <name>Loch Railway Reserve</name>
        <styleUrl>#icon-1899-0288D1-nodesc</styleUrl>
        <Point>
          <coordinates>
            145.7096164,-38.3678502,0
          </coordinates>
        </Point>
      </Placemark>
      <Placemark>
        <name>Korumburra</name>
        <styleUrl>#icon-1899-0288D1-nodesc</styleUrl>
        <Point>
          <coordinates>
            145.8238718,-38.430836,0
          </coordinates>
        </Point>
      </Placemark>
    </Folder>
  </Document>
</kml>
